PERSEUS-M1              
1 40039U 14033AF  26181.81790235  .00001294  00000+0  12172-3 0  9991
2 40039  97.9649 126.1740 0009996 250.1954 109.8189 14.95677159652678
POLYITAN-1              
1 40042U 14033AJ  26181.88584034  .00022733  00000+0  69738-3 0  9991
2 40042  98.0934 209.4467 0008768 104.0783 256.1433 15.33740393655692
TIGRISAT                
1 40043U 14033AK  26181.85990763  .00001876  00000+0  22040-3 0  9999
2 40043  97.7848 331.5595 0049827  31.2794 329.1369 14.85210540647654
AEROCUBE 6A             
1 40045U 14033AM  26181.91580767  .00005361  00000+0  44983-3 0  9990
2 40045  97.7227 348.7201 0037896 330.1522  29.7538 14.98223435648679
AEROCUBE 6B             
1 40046U 14033AN  26181.43770937  .00004015  00000+0  32579-3 0  9991
2 40046  97.7220 348.0666 0037694 322.6349  37.2254 14.99680047648744
CANX-4                  
1 40055U 14034C   26181.18905135  .00000911  00000+0  12406-3 0  9992
2 40055  98.3105  56.9785 0012182 335.2162  24.8462 14.81287257646454
CANX-5                  
1 40056U 14034D   26181.66017362  .00000917  00000+0  12472-3 0  9991
2 40056  98.3106  57.5112 0012153 333.8330  26.2266 14.81305576637336
UKUBE-1                 
1 40074U 14037F   26181.98446889  .00008844  00000+0  49444-3 0  9995
2 40074  98.4232 186.7078 0003194 110.8073 249.3498 15.13760862650648
BRITE-PL2 (HEWELIUSZ)   
1 40119U 14049B   26181.29417840  .00001504  00000+0  14407-3 0  9994
2 40119  97.9110 293.3961 0015182  68.3877 291.8959 14.94640537643406
AEROCUBE 5C             
1 40965U 15058B   26181.44707040  .00002025  00000+0  18614-3 0  9998
2 40965  64.7655 221.3382 0131416  58.0990 303.2827 14.91505798367636
AEROCUBE 7              
1 40966U 15058C   26181.67288035  .00003498  00000+0  28363-3 0  9999
2 40966  64.7599 202.5729 0121149  56.3719 304.8885 14.95803983367971
FOX-1A (AO-85)          
1 40967U 15058D   26181.76724953  .00002040  00000+0  18980-3 0  9990
2 40967  64.7740 236.7799 0131307  51.3115 309.9655 14.91024498115590
SINOD-D 1               
1 40968U 15058E   26181.51551323  .00003198  00000+0  26012-3 0  9993
2 40968  64.7731 217.1713 0119954  47.8242 313.2983 14.95981461118653
SNAP-3 ALICE            
1 40970U 15058G   26181.68549790  .00131563  00000+0  13720-2 0  9998
2 40970  64.7502  57.1607 0024065   1.7065 358.4160 15.63514020118990
LMRST-SAT               
1 40971U 15058H   26181.52476366  .00001923  00000+0  18094-3 0  9996
2 40971  64.7747 233.8969 0132886  53.4236 307.9018 14.90640261115546
SNAP-3 EDDIE            
1 40972U 15058J   26181.60100853  .00141841  00000+0  14082-2 0  9997
2 40972  64.7412  48.0788 0024773   5.0851 355.0544 15.64697747121124
PROPCUBE 3              
1 40973U 15058K   26181.52755621  .00002853  00000+0  24135-3 0  9998
2 40973  64.7666 210.8535 0124830  54.6546 306.6159 14.94323629116799
BISONSAT                
1 40974U 15058L   26181.81716194  .00016737  00000+0  79359-3 0  9997
2 40974  64.7579 129.5654 0080632  41.6952 319.0280 15.16549168117684
SNAP-3 JIMI             
1 40975U 15058M   26181.96841428  .00007493  00000+0  50953-3 0  9991
2 40975  64.7628 176.1648 0106940  49.8505 311.1919 15.02436589116291
PROPCUBE 1 (FLORA)      
1 40976U 15058N   26181.62623447  .00001815  00000+0  17839-3 0  9992
2 40976  64.7744 253.5838 0131511  55.6868 305.6608 14.89274373118268
SINOD-D 3               
1 40977U 15058P   26181.49443094  .00002720  00000+0  23487-3 0  9998
2 40977  64.7711 234.2631 0120034  52.8555 308.3450 14.94086768116741
HORYU-4                 
1 41340U 16012D   26180.82153158  .01724866  25695-2  11623-2 0  9990
2 41340  30.9811 345.1963 0009916 343.8353  16.1997 16.16169270572849
RAVAN                   
1 41849U 16067B   26181.94056109  .00064144  00000+0  91646-3 0  9995
2 41849  97.9872  73.1139 0002083 333.5792  26.5354 15.56040899529838
CELTEE 1                
1 41850U 16067C   26181.57303351  .00005447  00000+0  25791-3 0  9999
2 41850  98.0655  49.0530 0001675 127.0144 233.1243 15.19809479527917
OPTICUBE 04             
1 41851U 16067D   26181.66663284  .00002740  00000+0  17386-3 0  9998
2 41851  98.0684  34.6529 0016941  73.8821 286.4271 15.09717586527200
AEROCUBE 8D             
1 41852U 16067E   26180.88928313  .00007287  00000+0  29897-3 0  9990
2 41852  98.0666  52.0272 0005037  93.4048 266.7764 15.24570829528004
AEROCUBE 8C             
1 41853U 16067F   26181.17467180  .00007002  00000+0  28522-3 0  9993
2 41853  98.0539  49.5454 0005749  32.4331 327.7257 15.24825427528041
CORVUS BC2              
1 42846U 17042X   26181.41407017  .00002906  00000+0  20105-3 0  9997
2 42846  97.4068 342.2504 0014301  69.6054 290.6709 15.06373686489053
CORVUS BC1              
1 42847U 17042Y   26181.40722406  .00003558  00000+0  24421-3 0  9998
2 42847  97.4101 343.0664 0012726  48.0535 312.1776 15.06538934489088
MAKERSAT 0              
1 43016U 17073D   26181.63250687  .00017054  00000+0  45771-3 0  9990
2 43016  97.4604  64.2588 0104880 224.3337 134.9472 15.32524682468527
