OBJECT_NAME,OBJECT_ID,EPOCH,MEAN_MOTION,ECCENTRICITY,INCLINATION,RA_OF_ASC_NODE,ARG_OF_PERICENTER,MEAN_ANOMALY,EPHEMERIS_TYPE,CLASSIFICATION_TYPE,NORAD_CAT_ID,ELEMENT_SET_NO,REV_AT_EPOCH,BSTAR,MEAN_MOTION_DOT,MEAN_MOTION_DDOT
PERSEUS-M1,2014-033AF,2026-06-30T19:37:46.763040,14.95677159,.00099965,97.9649,126.1740,250.1954,109.8189,0,U,40039,999,65267,.12171915E-3,.1294E-4,0
POLYITAN-1,2014-033AJ,2026-06-30T21:15:36.605376,15.33740393,.00087683,98.0934,209.4467,104.0783,256.1433,0,U,40042,999,65569,.69737627E-3,.22733E-3,0
TIGRISAT,2014-033AK,2026-06-30T20:38:16.019232,14.85210540,.00498275,97.7848,331.5595,31.2794,329.1369,0,U,40043,999,64765,.22040194E-3,.1876E-4,0
AEROCUBE 6A,2014-033AM,2026-06-30T21:58:45.782688,14.98223435,.00378966,97.7227,348.7201,330.1522,29.7538,0,U,40045,999,64867,.44982973E-3,.5361E-4,0
AEROCUBE 6B,2014-033AN,2026-06-30T10:30:18.089568,14.99680047,.0037694,97.7220,348.0666,322.6349,37.2254,0,U,40046,999,64874,.32579106E-3,.4015E-4,0
CANX-4,2014-034C,2026-06-30T04:32:14.036640,14.81287257,.00121822,98.3105,56.9785,335.2162,24.8462,0,U,40055,999,64645,.12406375E-3,.911E-5,0
CANX-5,2014-034D,2026-06-30T15:50:39.000768,14.81305576,.0012153,98.3106,57.5112,333.8330,26.2266,0,U,40056,999,63733,.12471535E-3,.917E-5,0
UKUBE-1,2014-037F,2026-06-30T23:37:38.112096,15.13760862,.00031943,98.4232,186.7078,110.8073,249.3498,0,U,40074,999,65064,.49443592E-3,.8844E-4,0
BRITE-PL2 (HEWELIUSZ),2014-049B,2026-06-30T07:03:37.013760,14.94640537,.00151828,97.9110,293.3961,68.3877,291.8959,0,U,40119,999,64340,.14407238E-3,.1504E-4,0
AEROCUBE 5C,2015-058B,2026-06-30T10:43:46.882560,14.91505798,.0131416,64.7655,221.3382,58.0990,303.2827,0,U,40965,999,36763,.18614365E-3,.2025E-4,0
AEROCUBE 7,2015-058C,2026-06-30T16:08:56.862240,14.95803983,.01211495,64.7599,202.5729,56.3719,304.8885,0,U,40966,999,36797,.28363095E-3,.3498E-4,0
FOX-1A (AO-85),2015-058D,2026-06-30T18:24:50.359392,14.91024498,.0131307,64.7740,236.7799,51.3115,309.9655,0,U,40967,999,11559,.18979989E-3,.204E-4,0
SINOD-D 1,2015-058E,2026-06-30T12:22:20.343072,14.95981461,.01199547,64.7731,217.1713,47.8242,313.2983,0,U,40968,999,11865,.26011595E-3,.3198E-4,0
SNAP-3 ALICE,2015-058G,2026-06-30T16:27:07.018560,15.63514020,.00240653,64.7502,57.1607,1.7065,358.4160,0,U,40970,999,11899,.13719692E-2,.131563E-2,0
LMRST-SAT,2015-058H,2026-06-30T12:35:39.580224,14.90640261,.01328863,64.7747,233.8969,53.4236,307.9018,0,U,40971,999,11554,.18094132E-3,.1923E-4,0
SNAP-3 EDDIE,2015-058J,2026-06-30T14:25:27.136992,15.64697747,.00247738,64.7412,48.0788,5.0851,355.0544,0,U,40972,999,12112,.14082149E-2,.141841E-2,0
PROPCUBE 3,2015-058K,2026-06-30T12:39:40.856544,14.94323629,.01248309,64.7666,210.8535,54.6546,306.6159,0,U,40973,999,11679,.2413501E-3,.2853E-4,0
BISONSAT,2015-058L,2026-06-30T19:36:42.791616,15.16549168,.00806325,64.7579,129.5654,41.6952,319.0280,0,U,40974,999,11768,.79359472E-3,.16737E-3,0
SNAP-3 JIMI,2015-058M,2026-06-30T23:14:30.993792,15.02436589,.010694,64.7628,176.1648,49.8505,311.1919,0,U,40975,999,11629,.50952651E-3,.7493E-4,0
PROPCUBE 1 (FLORA),2015-058N,2026-06-30T15:01:46.658208,14.89274373,.0131511,64.7744,253.5838,55.6868,305.6608,0,U,40976,999,11826,.17838906E-3,.1815E-4,0
SINOD-D 3,2015-058P,2026-06-30T11:51:58.833216,14.94086768,.01200348,64.7711,234.2631,52.8555,308.3450,0,U,40977,999,11674,.23486741E-3,.272E-4,0
HORYU-4,2016-012D,2026-06-29T19:43:00.328512,16.16169270,.00099169,30.9811,345.1963,343.8353,16.1997,0,U,41340,999,57284,.11623376E-2,.1724866E-1,.25694954E-2
RAVAN,2016-067B,2026-06-30T22:34:24.478176,15.56040899,.00020831,97.9872,73.1139,333.5792,26.5354,0,U,41849,999,52983,.9164583E-3,.64144E-3,0
CELTEE 1,2016-067C,2026-06-30T13:45:10.095264,15.19809479,.00016752,98.0655,49.0530,127.0144,233.1243,0,U,41850,999,52791,.25791235E-3,.5447E-4,0
OPTICUBE 04,2016-067D,2026-06-30T15:59:57.077376,15.09717586,.0016941,98.0684,34.6529,73.8821,286.4271,0,U,41851,999,52720,.17385522E-3,.274E-4,0
AEROCUBE 8D,2016-067E,2026-06-29T21:20:34.062432,15.24570829,.00050379,98.0666,52.0272,93.4048,266.7764,0,U,41852,999,52800,.29897079E-3,.7287E-4,0
AEROCUBE 8C,2016-067F,2026-06-30T04:11:31.643520,15.24825427,.00057492,98.0539,49.5454,32.4331,327.7257,0,U,41853,999,52804,.28522161E-3,.7002E-4,0
CORVUS BC2,2017-042X,2026-06-30T09:56:15.662688,15.06373686,.00143013,97.4068,342.2504,69.6054,290.6709,0,U,42846,999,48905,.20104795E-3,.2906E-4,0
CORVUS BC1,2017-042Y,2026-06-30T09:46:24.158784,15.06538934,.00127266,97.4101,343.0664,48.0535,312.1776,0,U,42847,999,48908,.24420698E-3,.3558E-4,0
MAKERSAT 0,2017-073D,2026-06-30T15:10:48.593568,15.32524682,.01048803,97.4604,64.2588,224.3337,134.9472,0,U,43016,999,46852,.45771191E-3,.17054E-3,0
